[{"OBJECT_NAME":"STARLINK-2472","OBJECT_ID":"2021-027AQ","EPOCH":"2026-03-09T14:18:35.064288","MEAN_MOTION":15.30197129,"ECCENTRICITY":0.0001727,"INCLINATION":53.1621,"RA_OF_ASC_NODE":168.6315,"ARG_OF_PERICENTER":59.3925,"MEAN_ANOMALY":300.7246,"EPHEMERIS_TYPE":0,"CLASSIFICATION_TYPE":"U","NORAD_CAT_ID":48130,"ELEMENT_SET_NO":999,"REV_AT_EPOCH":27246,"BSTAR":1.7668e-5,"MEAN_MOTION_DOT":1.64e-6,"MEAN_MOTION_DDOT":0},{"OBJECT_NAME":"CSTP 1.2 (STC 1.2)","OBJECT_ID":"2023-091W","EPOCH":"2026-03-09T23:12:27.821952","MEAN_MOTION":15.2718076,"ECCENTRICITY":0.00204388,"INCLINATION":97.5258,"RA_OF_ASC_NODE":134.3262,"ARG_OF_PERICENTER":84.9592,"MEAN_ANOMALY":275.3979,"EPHEMERIS_TYPE":0,"CLASSIFICATION_TYPE":"U","NORAD_CAT_ID":57186,"ELEMENT_SET_NO":999,"REV_AT_EPOCH":14930,"BSTAR":0.00043035718,"MEAN_MOTION_DOT":0.00011466,"MEAN_MOTION_DDOT":0}]
